ONEWEB-0318             
1 49104U 21075AF  23059.46562309  .00000002  00000+0 -27768-4 0  9993
2 49104  87.9231 214.8299 0001928  90.9911 269.1442 13.18687846 78391
ONEWEB-0318             
1 49104U 21075AF  23059.69325173  .00000087  00000+0  18682-3 0  9990
2 49104  87.9232 214.7848 0001930  91.0482 269.0871 13.18688350 79420
ONEWEB-0318             
1 49104U 21075AF  23059.92088205 -.00000006  00000+0 -47546-4 0  9993
2 49104  87.9230 214.7397 0001915  91.0730 269.0622 13.18687205 78450
ONEWEB-0318             
1 49104U 21075AF  23060.83140272 -.00000321  00000+0 -84754-3 0  9999
2 49104  87.9225 214.5591 0001944  91.0971 269.0384 13.18685102 79570
ONEWEB-0318             
1 49104U 21075AF  23060.90727860 -.00000224  00000+0 -60210-3 0  9994
2 49104  87.9226 214.5443 0001942  91.1615 268.9739 13.18685592 78586
ONEWEB-0318             
1 49104U 21075AF  23061.81779828 -.00000327  00000+0 -86105-3 0  9991
2 49104  87.9234 214.3641 0001946  90.8939 269.2416 13.18684369 78703
ONEWEB-0318             
1 49104U 21075AF  23062.34893260  .00000130  00000+0  29608-3 0  9992
2 49104  87.9237 214.2589 0001921  90.4604 269.6748 13.18684903 79778
ONEWEB-0318             
1 49104U 21075AF  23062.42480926  .00000119  00000+0  26887-3 0  9995
2 49104  87.9237 214.2439 0001927  90.3760 269.7593 13.18684853 78783
ONEWEB-0318             
1 49104U 21075AF  23062.88006987 -.00000006  00000+0 -47466-4 0  9990
2 49104  87.9237 214.1536 0001907  89.3845 270.7505 13.18684002 78848
